[{"OBJECT_NAME":"UMBRA-11","OBJECT_ID":"2025-276CL","EPOCH":"2026-03-09T18:06:23.760288","MEAN_MOTION":15.22304162,"ECCENTRICITY":0.00010845,"INCLINATION":97.4267,"RA_OF_ASC_NODE":144.2955,"ARG_OF_PERICENTER":341.4923,"MEAN_ANOMALY":18.6273,"EPHEMERIS_TYPE":0,"CLASSIFICATION_TYPE":"U","NORAD_CAT_ID":66748,"ELEMENT_SET_NO":999,"REV_AT_EPOCH":1534,"BSTAR":0.0010529412,"MEAN_MOTION_DOT":0.00024246,"MEAN_MOTION_DDOT":0},{"OBJECT_NAME":"CZ-4C DEB","OBJECT_ID":"2015-069C","EPOCH":"2026-03-07T10:00:21.558816","MEAN_MOTION":15.31048021,"ECCENTRICITY":0.00583916,"INCLINATION":97.4862,"RA_OF_ASC_NODE":135.8649,"ARG_OF_PERICENTER":162.5456,"MEAN_ANOMALY":197.781,"EPHEMERIS_TYPE":0,"CLASSIFICATION_TYPE":"U","NORAD_CAT_ID":42670,"ELEMENT_SET_NO":999,"REV_AT_EPOCH":51749,"BSTAR":0.00045809658,"MEAN_MOTION_DOT":0.00014416,"MEAN_MOTION_DDOT":0}]
